{
  "type": "FeatureCollection",
  "features": [
    {
      "type": "Feature",
      "properties": {
        "norad_id": 39766,
        "name": "ALOS-2",
        "group": "resource",
        "lat": 41.616193984837665,
        "lon": 72.55734143041909,
        "alt_km": 627.0858810979453,
        "timestamp": "2025-12-10T18:56:59.718968+00:00",
        "meta_object_name": "ALOS-2",
        "meta_object_id": "2014-029A",
        "meta_epoch": "2025-12-10T12:16:02.876160",
        "meta_mean_motion": 14.79466326,
        "meta_eccentricity": 0.0001476,
        "meta_inclination": 97.9227,
        "meta_ra_of_asc_node": 79.3892,
        "meta_arg_of_pericenter": 98.4859,
        "meta_mean_anomaly": 261.652,
        "meta_ephemeris_type": 0,
        "meta_classification_type": "U",
        "meta_norad_cat_id": 39766,
        "meta_element_set_no": 999,
        "meta_rev_at_epoch": 62368,
        "meta_bstar": 0.00028111,
        "meta_mean_motion_dot": 2.048e-05,
        "meta_mean_motion_ddot": 0,
        "tle_line1": "1 39766U 14029A   25344.51114440  .00002048  00000+0  28111-3 0  9994",
        "tle_line2": "2 39766  97.9227  79.3892 0001476  98.4859 261.6520 14.79466326623683"
      },
      "geometry": {
        "type": "Point",
        "coordinates": [
          72.55734143041909,
          41.616193984837665
        ]
      }
    },
    {
      "type": "Feature",
      "properties": {
        "norad_id": 40010,
        "name": "KAZEOSAT 2",
        "group": "resource",
        "lat": -82.03942059067944,
        "lon": -99.26664387404122,
        "alt_km": 617.7006022414289,
        "timestamp": "2025-12-10T18:56:59.718978+00:00",
        "meta_object_name": "KAZEOSAT 2",
        "meta_object_id": "2014-033A",
        "meta_epoch": "2025-12-10T12:52:32.075040",
        "meta_mean_motion": 14.85162998,
        "meta_eccentricity": 0.0007564,
        "meta_inclination": 97.5503,
        "meta_ra_of_asc_node": 188.9644,
        "meta_arg_of_pericenter": 214.4975,
        "meta_mean_anomaly": 145.575,
        "meta_ephemeris_type": 0,
        "meta_classification_type": "U",
        "meta_norad_cat_id": 40010,
        "meta_element_set_no": 999,
        "meta_rev_at_epoch": 62095,
        "meta_bstar": 0.00017789,
        "meta_mean_motion_dot": 1.474e-05,
        "meta_mean_motion_ddot": 0,
        "tle_line1": "1 40010U 14033A   25344.53648235  .00001474  00000+0  17789-3 0  9990",
        "tle_line2": "2 40010  97.5503 188.9644 0007564 214.4975 145.5750 14.85162998620952"
      },
      "geometry": {
        "type": "Point",
        "coordinates": [
          -99.26664387404122,
          -82.03942059067944
        ]
      }
    },
    {
      "type": "Feature",
      "properties": {
        "norad_id": 40011,
        "name": "HODOYOSHI-4",
        "group": "resource",
        "lat": -15.782332263399091,
        "lon": 175.91521033906494,
        "alt_km": 622.4592082870731,
        "timestamp": "2025-12-10T18:56:59.718989+00:00",
        "meta_object_name": "HODOYOSHI-4",
        "meta_object_id": "2014-033B",
        "meta_epoch": "2025-12-10T12:33:49.251744",
        "meta_mean_motion": 14.87467843,
        "meta_eccentricity": 0.0023166,
        "meta_inclination": 97.5414,
        "meta_ra_of_asc_node": 173.5165,
        "meta_arg_of_pericenter": 208.3254,
        "meta_mean_anomaly": 151.6705,
        "meta_ephemeris_type": 0,
        "meta_classification_type": "U",
        "meta_norad_cat_id": 40011,
        "meta_element_set_no": 999,
        "meta_rev_at_epoch": 62075,
        "meta_bstar": 0.0003419,
        "meta_mean_motion_dot": 3.06e-05,
        "meta_mean_motion_ddot": 0,
        "tle_line1": "1 40011U 14033B   25344.52348671  .00003060  00000+0  34190-3 0  9999",
        "tle_line2": "2 40011  97.5414 173.5165 0023166 208.3254 151.6705 14.87467843620755"
      },
      "geometry": {
        "type": "Point",
        "coordinates": [
          175.91521033906494,
          -15.782332263399091
        ]
      }
    },
    {
      "type": "Feature",
      "properties": {
        "norad_id": 40013,
        "name": "DEIMOS-2",
        "group": "resource",
        "lat": 75.16219344677486,
        "lon": 70.94876376589005,
        "alt_km": 580.9261813772182,
        "timestamp": "2025-12-10T18:56:59.718999+00:00",
        "meta_object_name": "DEIMOS-2",
        "meta_object_id": "2014-033D",
        "meta_epoch": "2025-12-10T12:03:26.057088",
        "meta_mean_motion": 14.92956749,
        "meta_eccentricity": 9.73e-05,
        "meta_inclination": 97.6066,
        "meta_ra_of_asc_node": 220.3765,
        "meta_arg_of_pericenter": 89.7459,
        "meta_mean_anomaly": 270.3872,
        "meta_ephemeris_type": 0,
        "meta_classification_type": "U",
        "meta_norad_cat_id": 40013,
        "meta_element_set_no": 999,
        "meta_rev_at_epoch": 60956,
        "meta_bstar": 0.0002461,
        "meta_mean_motion_dot": 2.501e-05,
        "meta_mean_motion_ddot": 0,
        "tle_line1": "1 40013U 14033D   25344.50238492  .00002501  00000+0  24610-3 0  9993",
        "tle_line2": "2 40013  97.6066 220.3765 0000973  89.7459 270.3872 14.92956749609561"
      },
      "geometry": {
        "type": "Point",
        "coordinates": [
          70.94876376589005,
          75.16219344677486
        ]
      }
    },
    {
      "type": "Feature",
      "properties": {
        "norad_id": 40015,
        "name": "HODOYOSHI-3",
        "group": "resource",
        "lat": -70.22945452868485,
        "lon": 172.57619325923943,
        "alt_km": 602.9667063092857,
        "timestamp": "2025-12-10T18:56:59.719009+00:00",
        "meta_object_name": "HODOYOSHI-3",
        "meta_object_id": "2014-033F",
        "meta_epoch": "2025-12-10T11:11:05.437824",
        "meta_mean_motion": 14.84794737,
        "meta_eccentricity": 0.003184,
        "meta_inclination": 97.62,
        "meta_ra_of_asc_node": 150.4,
        "meta_arg_of_pericenter": 255.7267,
        "meta_mean_anomaly": 104.0411,
        "meta_ephemeris_type": 0,
        "meta_classification_type": "U",
        "meta_norad_cat_id": 40015,
        "meta_element_set_no": 999,
        "meta_rev_at_epoch": 61961,
        "meta_bstar": 0.00033087,
        "meta_mean_motion_dot": 2.781e-05,
        "meta_mean_motion_ddot": 0,
        "tle_line1": "1 40015U 14033F   25344.46603516  .00002781  00000+0  33087-3 0  9991",
        "tle_line2": "2 40015  97.6200 150.4000 0031840 255.7267 104.0411 14.84794737619614"
      },
      "geometry": {
        "type": "Point",
        "coordinates": [
          172.57619325923943,
          -70.22945452868485
        ]
      }
    },
    {
      "type": "Feature",
      "properties": {
        "norad_id": 40053,
        "name": "SPOT 7",
        "group": "resource",
        "lat": 0.3170073476334076,
        "lon": -133.0451030364045,
        "alt_km": 693.8195420504726,
        "timestamp": "2025-12-10T18:56:59.719019+00:00",
        "meta_object_name": "SPOT 7",
        "meta_object_id": "2014-034A",
        "meta_epoch": "2025-12-10T11:33:16.828992",
        "meta_mean_motion": 14.60729413,
        "meta_eccentricity": 0.000157,
        "meta_inclination": 98.0904,
        "meta_ra_of_asc_node": 46.6088,
        "meta_arg_of_pericenter": 87.7401,
        "meta_mean_anomaly": 272.3979,
        "meta_ephemeris_type": 0,
        "meta_classification_type": "U",
        "meta_norad_cat_id": 40053,
        "meta_element_set_no": 999,
        "meta_rev_at_epoch": 60958,
        "meta_bstar": 0.00019999,
        "meta_mean_motion_dot": 9.29e-06,
        "meta_mean_motion_ddot": 0,
        "tle_line1": "1 40053U 14034A   25344.48144478  .00000929  00000+0  19999-3 0  9991",
        "tle_line2": "2 40053  98.0904  46.6088 0001570  87.7401 272.3979 14.60729413609580"
      },
      "geometry": {
        "type": "Point",
        "coordinates": [
          -133.0451030364045,
          0.3170073476334076
        ]
      }
    },
    {
      "type": "Feature",
      "properties": {
        "norad_id": 40072,
        "name": "SKYSAT-B",
        "group": "resource",
        "lat": -70.14545064264051,
        "lon": -47.57344382656562,
        "alt_km": 616.3932709325927,
        "timestamp": "2025-12-10T18:56:59.719029+00:00",
        "meta_object_name": "SKYSAT-B",
        "meta_object_id": "2014-037D",
        "meta_epoch": "2025-12-10T09:35:07.778976",
        "meta_mean_motion": 14.87313745,
        "meta_eccentricity": 0.0005966,
        "meta_inclination": 98.3608,
        "meta_ra_of_asc_node": 287.9818,
        "meta_arg_of_pericenter": 157.2173,
        "meta_mean_anomaly": 202.9307,
        "meta_ephemeris_type": 0,
        "meta_classification_type": "U",
        "meta_norad_cat_id": 40072,
        "meta_element_set_no": 999,
        "meta_rev_at_epoch": 61789,
        "meta_bstar": 0.00035559,
        "meta_mean_motion_dot": 3.149e-05,
        "meta_mean_motion_ddot": 0,
        "tle_line1": "1 40072U 14037D   25344.39939559  .00003149  00000+0  35559-3 0  9994",
        "tle_line2": "2 40072  98.3608 287.9818 0005966 157.2173 202.9307 14.87313745617891"
      },
      "geometry": {
        "type": "Point",
        "coordinates": [
          -47.57344382656562,
          -70.14545064264051
        ]
      }
    }
  ]
}